[
    {
        "Altitude(m)": 607897.6396224946,
        "Argument of Periapsis(deg)": 0.0,
        "Eccentricity": 0.0,
        "Inclination(deg)": 60.0,
        "Latitude(deg)": -14.293075403906537,
        "Longitude(deg)": -118.38125773256904,
        "Mean Anomaly(deg)": -16.363599999999984,
        "RAAN(deg)": 350.0,
        "Satellite Name": "Test1 1561",
        "Satellite Number": 1561,
        "Semi-Major Axis(m)": 6980739.136638005,
        "Time(s)": 0
    },
    {
        "Altitude(m)": 607750.840092052,
        "Argument of Periapsis(deg)": 0.00010418945913296404,
        "Eccentricity": 0.0,
        "Inclination(deg)": 60.0,
        "Latitude(deg)": -13.758917065451339,
        "Longitude(deg)": -118.0941881355583,
        "Mean Anomaly(deg)": -15.743493854538132,
        "RAAN(deg)": 349.99957995086027,
        "Satellite Name": "Test1 1561",
        "Satellite Number": 1561,
        "Semi-Major Axis(m)": 6980739.136638005,
        "Time(s)": 10
    }
]